{"type": "FeatureCollection", "features": [ {"type": "Feature", "properties": {"norad_id": 54031, "name": "COSMOS 2559 (707K)", "group": "gnss", "lat": 53.59092952728357, "lon": 100.23900720038542, "alt_km": 19116.248335700595, "timestamp": "2025-12-21T16:47:54.982010+00:00", "meta": {"OBJECT_NAME": "COSMOS 2559 (707K)", "OBJECT_ID": "2022-130A", "EPOCH": "2025-12-21T01:52:43.812768", "MEAN_MOTION": 2.13101354, "ECCENTRICITY": 0.00115601, "INCLINATION": 64.3775, "RA_OF_ASC_NODE": 320.8478, "ARG_OF_PERICENTER": 191.8523, "MEAN_ANOMALY": 168.1144, "EPHEMERIS_TYPE": 0, "CLASSIFICATION_TYPE": "U", "NORAD_CAT_ID": 54031, "ELEMENT_SET_NO": 999, "REV_AT_EPOCH": 2489, "BSTAR": 0, "MEAN_MOTION_DOT": -5e-07, "MEAN_MOTION_DDOT": 0}, "tle": {"line1": "1 54031U 22130A   25355.07828487 -.00000050  00000+0  00000+0 0  9999", "line2": "2 54031  64.3775 320.8478 0011560 191.8523 168.1144  2.13101354 24899"}}, "geometry": {"type": "Point", "coordinates": [100.23900720038542, 53.59092952728357]}}, {"type": "Feature", "properties": {"norad_id": 54377, "name": "COSMOS 2564 (761)", "group": "gnss", "lat": -48.95486220058626, "lon": 51.46856030351654, "alt_km": 19117.218205985188, "timestamp": "2025-12-21T16:47:54.982021+00:00", "meta": {"OBJECT_NAME": "COSMOS 2564 (761)", "OBJECT_ID": "2022-161A", "EPOCH": "2025-12-20T22:08:20.201856", "MEAN_MOTION": 2.13102061, "ECCENTRICITY": 0.00085464, "INCLINATION": 64.7387, "RA_OF_ASC_NODE": 198.627, "ARG_OF_PERICENTER": 203.7858, "MEAN_ANOMALY": 156.2488, "EPHEMERIS_TYPE": 0, "CLASSIFICATION_TYPE": "U", "NORAD_CAT_ID": 54377, "ELEMENT_SET_NO": 999, "REV_AT_EPOCH": 2383, "BSTAR": 0, "MEAN_MOTION_DOT": 9.9e-07, "MEAN_MOTION_DDOT": 0}, "tle": {"line1": "1 54377U 22161A   25354.92245604  .00000099  00000+0  00000+0 0  9995", "line2": "2 54377  64.7387 198.6270 0008546 203.7858 156.2488  2.13102061 23838"}}, "geometry": {"type": "Point", "coordinates": [51.46856030351654, -48.95486220058626]}}, {"type": "Feature", "properties": {"norad_id": 55268, "name": "GPS BIII-6  (PRN 28)", "group": "gnss", "lat": 5.956296944311183, "lon": -28.693505299608315, "alt_km": 20192.342635855653, "timestamp": "2025-12-21T16:47:54.982032+00:00", "meta": {"OBJECT_NAME": "GPS BIII-6  (PRN 28)", "OBJECT_ID": "2023-009A", "EPOCH": "2025-12-21T11:01:56.819424", "MEAN_MOTION": 2.00555004, "ECCENTRICITY": 0.0003719, "INCLINATION": 55.1065, "RA_OF_ASC_NODE": 155.503, "ARG_OF_PERICENTER": 355.6529, "MEAN_ANOMALY": 3.5346, "EPHEMERIS_TYPE": 0, "CLASSIFICATION_TYPE": "U", "NORAD_CAT_ID": 55268, "ELEMENT_SET_NO": 999, "REV_AT_EPOCH": 2167, "BSTAR": 0, "MEAN_MOTION_DOT": 6.8e-07, "MEAN_MOTION_DDOT": 0}, "tle": {"line1": "1 55268U 23009A   25355.45968541  .00000068  00000+0  00000+0 0  9994", "line2": "2 55268  55.1065 155.5030 0003719 355.6529   3.5346  2.00555004 21672"}}, "geometry": {"type": "Point", "coordinates": [-28.693505299608315, 5.956296944311183]}}, {"type": "Feature", "properties": {"norad_id": 56564, "name": "BEIDOU-3 G4 (C62)", "group": "gnss", "lat": -0.2540752326109227, "lon": 142.52911262413434, "alt_km": 35776.166026124505, "timestamp": "2025-12-21T16:47:54.982043+00:00", "meta": {"OBJECT_NAME": "BEIDOU-3 G4 (C62)", "OBJECT_ID": "2023-066A", "EPOCH": "2025-12-21T13:43:23.763648", "MEAN_MOTION": 1.002714, "ECCENTRICITY": 0.0002685, "INCLINATION": 0.7967, "RA_OF_ASC_NODE": 302.7189, "ARG_OF_PERICENTER": 226.6449, "MEAN_ANOMALY": 286.9347, "EPHEMERIS_TYPE": 0, "CLASSIFICATION_TYPE": "U", "NORAD_CAT_ID": 56564, "ELEMENT_SET_NO": 999, "REV_AT_EPOCH": 961, "BSTAR": 0, "MEAN_MOTION_DOT": -8.8e-07, "MEAN_MOTION_DDOT": 0}, "tle": {"line1": "1 56564U 23066A   25355.57180282 -.00000088  00000+0  00000+0 0  9991", "line2": "2 56564   0.7967 302.7189 0002685 226.6449 286.9347  1.00271400  9611"}}, "geometry": {"type": "Point", "coordinates": [142.52911262413434, -0.2540752326109227]}}, {"type": "Feature", "properties": {"norad_id": 56759, "name": "NVS-01 (IRNSS-1J)", "group": "gnss", "lat": -1.6687096517335493, "lon": 111.9727088060039, "alt_km": 35819.79619485466, "timestamp": "2025-12-21T16:47:54.982055+00:00", "meta": {"OBJECT_NAME": "NVS-01 (IRNSS-1J)", "OBJECT_ID": "2023-076A", "EPOCH": "2025-12-21T12:44:34.175040", "MEAN_MOTION": 1.00273163, "ECCENTRICITY": 0.0008761, "INCLINATION": 2.5978, "RA_OF_ASC_NODE": 251.2897, "ARG_OF_PERICENTER": 16.4363, "MEAN_ANOMALY": 143.3231, "EPHEMERIS_TYPE": 0, "CLASSIFICATION_TYPE": "U", "NORAD_CAT_ID": 56759, "ELEMENT_SET_NO": 999, "REV_AT_EPOCH": 933, "BSTAR": 0, "MEAN_MOTION_DOT": -3.11e-06, "MEAN_MOTION_DDOT": 0}, "tle": {"line1": "1 56759U 23076A   25355.53095110 -.00000311  00000+0  00000+0 0  9998", "line2": "2 56759   2.5978 251.2897 0008761  16.4363 143.3231  1.00273163  9339"}}, "geometry": {"type": "Point", "coordinates": [111.9727088060039, -1.6687096517335493]}}, {"type": "Feature", "properties": {"norad_id": 57517, "name": "COSMOS 2569 (703K)", "group": "gnss", "lat": -40.82189163291895, "lon": -77.8762587954109, "alt_km": 19121.442966326176, "timestamp": "2025-12-21T16:47:54.982069+00:00", "meta": {"OBJECT_NAME": "COSMOS 2569 (703K)", "OBJECT_ID": "2023-114A", "EPOCH": "2025-12-20T11:11:48.591168", "MEAN_MOTION": 2.13103983, "ECCENTRICITY": 0.00107986, "INCLINATION": 65.1981, "RA_OF_ASC_NODE": 78.6524, "ARG_OF_PERICENTER": 287.0398, "MEAN_ANOMALY": 72.8764, "EPHEMERIS_TYPE": 0, "CLASSIFICATION_TYPE": "U", "NORAD_CAT_ID": 57517, "ELEMENT_SET_NO": 999, "REV_AT_EPOCH": 1845, "BSTAR": 0, "MEAN_MOTION_DOT": -1.8e-07, "MEAN_MOTION_DDOT": 0}, "tle": {"line1": "1 57517U 23114A   25354.46653462 -.00000018  00000+0  00000+0 0  9999", "line2": "2 57517  65.1981  78.6524 0010798 287.0398  72.8764  2.13103983 18453"}}, "geometry": {"type": "Point", "coordinates": [-77.8762587954109, -40.82189163291895]}}, {"type": "Feature", "properties": {"norad_id": 58654, "name": "BEIDOU-3 M28 (C50)", "group": "gnss", "lat": 55.611329176395756, "lon": 157.5439840084362, "alt_km": 21529.136986067304, "timestamp": "2025-12-21T16:47:54.982083+00:00", "meta": {"OBJECT_NAME": "BEIDOU-3 M28 (C50)", "OBJECT_ID": "2023-207A", "EPOCH": "2025-12-18T08:16:11.764704", "MEAN_MOTION": 1.86229821, "ECCENTRICITY": 0.00026501, "INCLINATION": 55.5892, "RA_OF_ASC_NODE": 68.4116, "ARG_OF_PERICENTER": 272.4264, "MEAN_ANOMALY": 87.5728, "EPHEMERIS_TYPE": 0, "CLASSIFICATION_TYPE": "U", "NORAD_CAT_ID": 58654, "ELEMENT_SET_NO": 999, "REV_AT_EPOCH": 1347, "BSTAR": 0, "MEAN_MOTION_DOT": -6.6e-07, "MEAN_MOTION_DDOT": 0}, "tle": {"line1": "1 58654U 23207A   25352.34458061 -.00000066  00000+0  00000+0 0  9991", "line2": "2 58654  55.5892  68.4116 0002650 272.4264  87.5728  1.86229821 13471"}}, "geometry": {"type": "Point", "coordinates": [157.5439840084362, 55.611329176395756]}}, {"type": "Feature", "properties": {"norad_id": 58655, "name": "BEIDOU-3 M26 (C48)", "group": "gnss", "lat": -35.88632633952464, "lon": -82.01956656519744, "alt_km": 21522.92851013485, "timestamp": "2025-12-21T16:47:54.982095+00:00", "meta": {"OBJECT_NAME": "BEIDOU-3 M26 (C48)", "OBJECT_ID": "2023-207B", "EPOCH": "2025-12-21T08:44:02.300064", "MEAN_MOTION": 1.86231304, "ECCENTRICITY": 0.0004101, "INCLINATION": 55.5938, "RA_OF_ASC_NODE": 68.2956, "ARG_OF_PERICENTER": 259.2566, "MEAN_ANOMALY": 100.7432, "EPHEMERIS_TYPE": 0, "CLASSIFICATION_TYPE": "U", "NORAD_CAT_ID": 58655, "ELEMENT_SET_NO": 999, "REV_AT_EPOCH": 1351, "BSTAR": 0, "MEAN_MOTION_DOT": -3.7e-07, "MEAN_MOTION_DDOT": 0}, "tle": {"line1": "1 58655U 23207B   25355.36391551 -.00000037  00000+0  00000+0 0  9995", "line2": "2 58655  55.5938  68.2956 0004101 259.2566 100.7432  1.86231304 13518"}}, "geometry": {"type": "Point", "coordinates": [-82.01956656519744, -35.88632633952464]}}, {"type": "Feature", "properties": {"norad_id": 59598, "name": "GSAT0225 (GALILEO 29)", "group": "gnss", "lat": 14.055884049308323, "lon": 116.12692449863147, "alt_km": 23226.820629967704, "timestamp": "2025-12-21T16:47:54.982107+00:00", "meta": {"OBJECT_NAME": "GSAT0225 (GALILEO 29)", "OBJECT_ID": "2024-079A", "EPOCH": "2025-12-19T07:40:30.040032", "MEAN_MOTION": 1.7047502, "ECCENTRICITY": 0.0002191, "INCLINATION": 55.0052, "RA_OF_ASC_NODE": 106.1117, "ARG_OF_PERICENTER": 185.2617, "MEAN_ANOMALY": 171.1938, "EPHEMERIS_TYPE": 0, "CLASSIFICATION_TYPE": "U", "NORAD_CAT_ID": 59598, "ELEMENT_SET_NO": 999, "REV_AT_EPOCH": 1024, "BSTAR": 0, "MEAN_MOTION_DOT": -6e-08, "MEAN_MOTION_DDOT": 0}, "tle": {"line1": "1 59598U 24079A   25353.31979213 -.00000006  00000+0  00000+0 0  9996", "line2": "2 59598  55.0052 106.1117 0002191 185.2617 171.1938  1.70475020 10248"}}, "geometry": {"type": "Point", "coordinates": [116.12692449863147, 14.055884049308323]}}, {"type": "Feature", "properties": {"norad_id": 59600, "name": "GSAT0227 (GALILEO 30)", "group": "gnss", "lat": -54.680615838177324, "lon": 6.9224653203245134, "alt_km": 23235.110769366413, "timestamp": "2025-12-21T16:47:54.982118+00:00", "meta": {"OBJECT_NAME": "GSAT0227 (GALILEO 30)", "OBJECT_ID": "2024-079C", "EPOCH": "2025-12-21T06:26:54.419424", "MEAN_MOTION": 1.70474886, "ECCENTRICITY": 0.000287, "INCLINATION": 55.0016, "RA_OF_ASC_NODE": 106.0558, "ARG_OF_PERICENTER": 117.1813, "MEAN_ANOMALY": 242.8188, "EPHEMERIS_TYPE": 0, "CLASSIFICATION_TYPE": "U", "NORAD_CAT_ID": 59600, "ELEMENT_SET_NO": 999, "REV_AT_EPOCH": 1033, "BSTAR": 0, "MEAN_MOTION_DOT": 1e-08, "MEAN_MOTION_DDOT": 0}, "tle": {"line1": "1 59600U 24079C   25355.26868541  .00000001  00000+0  00000+0 0  9991", "line2": "2 59600  55.0016 106.0558 0002870 117.1813 242.8188  1.70474886 10338"}}, "geometry": {"type": "Point", "coordinates": [6.9224653203245134, -54.680615838177324]}}]}